NAVSTAR 50 (USA 156)
1 26690U 01004A   26119.32735300 -.00000112  00000+0  00000+0 0  9993
2 26690  55.1841  34.5300 0003315  17.1106 149.2200  1.91588303182605
